{
  "type": "FeatureCollection",
  "features": [
    {
      "type": "Feature",
      "properties": {
        "norad_id": 39773,
        "name": "EUTELSAT 3B",
        "group": "eutelsat",
        "lat": -0.05621057939837985,
        "lon": -148.5161276820318,
        "alt_km": 35769.03946963968,
        "timestamp": "2025-12-23T07:45:09.068062+00:00",
        "meta_object_name": "EUTELSAT 3B",
        "meta_object_id": "2014-030A",
        "meta_epoch": "2025-12-22T18:18:54.834624",
        "meta_mean_motion": 1.00271831,
        "meta_eccentricity": 0.00042956,
        "meta_inclination": 0.0623,
        "meta_ra_of_asc_node": 344.3959,
        "meta_arg_of_pericenter": 246.9834,
        "meta_mean_anomaly": 138.0171,
        "meta_ephemeris_type": 0,
        "meta_classification_type": "U",
        "meta_norad_cat_id": 39773,
        "meta_element_set_no": 999,
        "meta_rev_at_epoch": 4229,
        "meta_bstar": 0,
        "meta_mean_motion_dot": 4.2e-07,
        "meta_mean_motion_ddot": 0,
        "tle_line1": "1 39773U 14030A   25356.76313466  .00000042  00000+0  00000+0 0  9998",
        "tle_line2": "2 39773   0.0623 344.3959 0004295 246.9834 138.0171  1.00271831 42296"
      },
      "geometry": {
        "type": "Point",
        "coordinates": [
          -148.5161276820318,
          -0.05621057939837985
        ]
      }
    },
    {
      "type": "Feature",
      "properties": {
        "norad_id": 40425,
        "name": "EUTELSAT 115 WEST B",
        "group": "eutelsat",
        "lat": -0.009915526241258962,
        "lon": 93.476532550531,
        "alt_km": 35787.505353851375,
        "timestamp": "2025-12-23T07:45:09.068087+00:00",
        "meta_object_name": "EUTELSAT 115 WEST B",
        "meta_object_id": "2015-010B",
        "meta_epoch": "2025-12-22T10:47:31.232256",
        "meta_mean_motion": 1.00269855,
        "meta_eccentricity": 2.522e-05,
        "meta_inclination": 0.0093,
        "meta_ra_of_asc_node": 153.5517,
        "meta_arg_of_pericenter": 151.4988,
        "meta_mean_anomaly": 193.1685,
        "meta_ephemeris_type": 0,
        "meta_classification_type": "U",
        "meta_norad_cat_id": 40425,
        "meta_element_set_no": 999,
        "meta_rev_at_epoch": 3962,
        "meta_bstar": 0,
        "meta_mean_motion_dot": -3e-08,
        "meta_mean_motion_ddot": 0,
        "tle_line1": "1 40425U 15010B   25356.44966704 -.00000003  00000+0  00000+0 0  9995",
        "tle_line2": "2 40425   0.0093 153.5517 0000252 151.4988 193.1685  1.00269855 39620"
      },
      "geometry": {
        "type": "Point",
        "coordinates": [
          93.476532550531,
          -0.009915526241258962
        ]
      }
    },
    {
      "type": "Feature",
      "properties": {
        "norad_id": 40875,
        "name": "EUTELSAT 8 WEST B",
        "group": "eutelsat",
        "lat": -0.024008854855220113,
        "lon": -159.6514931537739,
        "alt_km": 35780.748215610976,
        "timestamp": "2025-12-23T07:45:09.068101+00:00",
        "meta_object_name": "EUTELSAT 8 WEST B",
        "meta_object_id": "2015-039B",
        "meta_epoch": "2025-12-22T18:15:47.634336",
        "meta_mean_motion": 1.0027118,
        "meta_eccentricity": 0.00042526,
        "meta_inclination": 0.0637,
        "meta_ra_of_asc_node": 3.5224,
        "meta_arg_of_pericenter": 269.0428,
        "meta_mean_anomaly": 84.9445,
        "meta_ephemeris_type": 0,
        "meta_classification_type": "U",
        "meta_norad_cat_id": 40875,
        "meta_element_set_no": 999,
        "meta_rev_at_epoch": 3788,
        "meta_bstar": 0,
        "meta_mean_motion_dot": -4.4e-07,
        "meta_mean_motion_ddot": 0,
        "tle_line1": "1 40875U 15039B   25356.76096799 -.00000044  00000+0  00000+0 0  9993",
        "tle_line2": "2 40875   0.0637   3.5224 0004252 269.0428  84.9445  1.00271180 37882"
      },
      "geometry": {
        "type": "Point",
        "coordinates": [
          -159.6514931537739,
          -0.024008854855220113
        ]
      }
    },
    {
      "type": "Feature",
      "properties": {
        "norad_id": 41310,
        "name": "EUTELSAT 9B",
        "group": "eutelsat",
        "lat": 0.02907187224007555,
        "lon": -142.64037377589386,
        "alt_km": 35775.72725697805,
        "timestamp": "2025-12-23T07:45:09.068114+00:00",
        "meta_object_name": "EUTELSAT 9B",
        "meta_object_id": "2016-005A",
        "meta_epoch": "2025-12-22T03:54:38.524896",
        "meta_mean_motion": 1.00273048,
        "meta_eccentricity": 0.0004511,
        "meta_inclination": 0.0657,
        "meta_ra_of_asc_node": 72.7349,
        "meta_arg_of_pericenter": 203.4472,
        "meta_mean_anomaly": 242.4516,
        "meta_ephemeris_type": 0,
        "meta_classification_type": "U",
        "meta_norad_cat_id": 41310,
        "meta_element_set_no": 999,
        "meta_rev_at_epoch": 3634,
        "meta_bstar": 0,
        "meta_mean_motion_dot": 8.4e-07,
        "meta_mean_motion_ddot": 0,
        "tle_line1": "1 41310U 16005A   25356.16294589  .00000084  00000+0  00000+0 0  9996",
        "tle_line2": "2 41310   0.0657  72.7349 0004511 203.4472 242.4516  1.00273048 36349"
      },
      "geometry": {
        "type": "Point",
        "coordinates": [
          -142.64037377589386,
          0.02907187224007555
        ]
      }
    },
    {
      "type": "Feature",
      "properties": {
        "norad_id": 41382,
        "name": "EUTELSAT 65 WEST A",
        "group": "eutelsat",
        "lat": 0.027445326477047886,
        "lon": 143.1918206776851,
        "alt_km": 35791.904297178415,
        "timestamp": "2025-12-23T07:45:09.068126+00:00",
        "meta_object_name": "EUTELSAT 65 WEST A",
        "meta_object_id": "2016-014A",
        "meta_epoch": "2025-12-22T21:24:52.028640",
        "meta_mean_motion": 1.00273015,
        "meta_eccentricity": 0.00021787,
        "meta_inclination": 0.0507,
        "meta_ra_of_asc_node": 338.2358,
        "meta_arg_of_pericenter": 296.5249,
        "meta_mean_anomaly": 72.9594,
        "meta_ephemeris_type": 0,
        "meta_classification_type": "U",
        "meta_norad_cat_id": 41382,
        "meta_element_set_no": 999,
        "meta_rev_at_epoch": 3576,
        "meta_bstar": 0,
        "meta_mean_motion_dot": -2.55e-06,
        "meta_mean_motion_ddot": 0,
        "tle_line1": "1 41382U 16014A   25356.89226885 -.00000255  00000+0  00000+0 0  9990",
        "tle_line2": "2 41382   0.0507 338.2358 0002178 296.5249  72.9594  1.00273015 35765"
      },
      "geometry": {
        "type": "Point",
        "coordinates": [
          143.1918206776851,
          0.027445326477047886
        ]
      }
    },
    {
      "type": "Feature",
      "properties": {
        "norad_id": 41589,
        "name": "EUTELSAT 117 WEST B",
        "group": "eutelsat",
        "lat": -0.004264175326288481,
        "lon": 91.40076801766995,
        "alt_km": 35787.75564003329,
        "timestamp": "2025-12-23T07:45:09.068138+00:00",
        "meta_object_name": "EUTELSAT 117 WEST B",
        "meta_object_id": "2016-038B",
        "meta_epoch": "2025-12-22T10:46:33.521376",
        "meta_mean_motion": 1.00271447,
        "meta_eccentricity": 3.908e-05,
        "meta_inclination": 0.0103,
        "meta_ra_of_asc_node": 138.8686,
        "meta_arg_of_pericenter": 145.0277,
        "meta_mean_anomaly": 212.0013,
        "meta_ephemeris_type": 0,
        "meta_classification_type": "U",
        "meta_norad_cat_id": 41589,
        "meta_element_set_no": 999,
        "meta_rev_at_epoch": 3489,
        "meta_bstar": 0,
        "meta_mean_motion_dot": 1e-07,
        "meta_mean_motion_ddot": 0,
        "tle_line1": "1 41589U 16038B   25356.44899909  .00000010  00000+0  00000+0 0  9997",
        "tle_line2": "2 41589   0.0103 138.8686 0000390 145.0277 212.0013  1.00271447 34890"
      },
      "geometry": {
        "type": "Point",
        "coordinates": [
          91.40076801766995,
          -0.004264175326288481
        ]
      }
    },
    {
      "type": "Feature",
      "properties": {
        "norad_id": 42741,
        "name": "EUTELSAT 172B",
        "group": "eutelsat",
        "lat": -0.008549590910461601,
        "lon": 20.397085143370553,
        "alt_km": 35786.69725322558,
        "timestamp": "2025-12-23T07:45:09.068149+00:00",
        "meta_object_name": "EUTELSAT 172B",
        "meta_object_id": "2017-029B",
        "meta_epoch": "2025-12-22T20:49:47.887968",
        "meta_mean_motion": 1.0027022,
        "meta_eccentricity": 2.371e-05,
        "meta_inclination": 0.0213,
        "meta_ra_of_asc_node": 108.0382,
        "meta_arg_of_pericenter": 13.7152,
        "meta_mean_anomaly": 94.3687,
        "meta_ephemeris_type": 0,
        "meta_classification_type": "U",
        "meta_norad_cat_id": 42741,
        "meta_element_set_no": 999,
        "meta_rev_at_epoch": 3196,
        "meta_bstar": 0,
        "meta_mean_motion_dot": 1.6e-07,
        "meta_mean_motion_ddot": 0,
        "tle_line1": "1 42741U 17029B   25356.86791537  .00000016  00000+0  00000+0 0  9999",
        "tle_line2": "2 42741   0.0213 108.0382 0000237  13.7152  94.3687  1.00270220 31969"
      },
      "geometry": {
        "type": "Point",
        "coordinates": [
          20.397085143370553,
          -0.008549590910461601
        ]
      }
    }
  ]
}